AMC-3                   
1 24936U 97050A   24184.59812295 -.00000266  00000+0  00000+0 0  9998
2 24936   6.3852  72.0222 0002445  37.9237 314.4758  1.00271137 45262
ASTRA 2A                
1 25462U 98050A   24184.83850117  .00000064  00000+0  00000+0 0  9991
2 25462   5.2865  77.2992 0002880  19.0320 184.0528  1.00272565 39172
NSS-11                  
1 26554U 00059A   24185.15952243  .00000025  00000+0  00000+0 0  9992
2 26554   0.2748  88.5902 0002778  17.4815  49.0034  1.00271581 87018
AMC-6                   
1 26580U 00067A   24184.49229014  .00000106  00000+0  00000+0 0  9999
2 26580   0.0179  41.8167 0002877  83.1425 194.2752  1.00279077 86810
AMC-11                  
1 28252U 04017A   24184.51876208 -.00000047  00000+0  00000+0 0  9997
2 28252   0.0175 347.5631 0000808 122.4226 246.6901  1.00270960 73708
AMC-15                  
1 28446U 04041A   24184.51998042 -.00000086  00000+0  00000+0 0  9993
2 28446   0.0349 307.8148 0002118 158.5977 256.7729  1.00271448 72146
NSS-10                  
1 28526U 05003A   24185.46371668 -.00000256  00000+0  00000+0 0  9994
2 28526   4.6568  79.0150 0002625  22.1888 310.2299  1.00270136 71161
ASTRA 1KR               
1 29055U 06012A   24184.54701987  .00000122  00000+0  00000+0 0  9993
2 29055   0.0555 281.9672 0002302 244.3007 330.9266  1.00275523 38555
ASTRA 1L                
1 31306U 07016A   24185.26027788  .00000120  00000+0  00000+0 0  9998
2 31306   0.0683 312.2301 0001130  83.9505 358.4583  1.00270331 62886
ASTRA 4A                
1 32299U 07057A   24185.11433888  .00000033  00000+0  00000+0 0  9994
2 32299   0.0142 340.1647 0002723 109.6731 237.7522  1.00269331 60807
AMC-21                  
1 33275U 08038B   24185.51461708  .00000036  00000+0  00000+0 0  9998
2 33275   1.0986  89.7856 0002153  11.8393 240.7243  1.00270293 58318
ASTRA 1M                
1 33436U 08057A   24184.33006403  .00000123  00000+0  00000+0 0  9991
2 33436   0.0072 337.6399 0005445 146.9080 294.3304  1.00275617 57316
NSS-9                   
1 33749U 09008A   24185.55049406  .00000072  00000+0  00000+0 0  9993
2 33749   0.0177 342.1393 0001914 111.1824 209.9605  1.00271598 56400
SES-7 (PROTOSTAR 2)     
1 34941U 09027A   24184.89555459 -.00000344  00000+0  00000+0 0  9998
2 34941   0.0136  22.8841 0001257 168.2857 160.8942  1.00271886 55452
NSS-12                  
1 36032U 09058A   24184.55190916  .00000073  00000+0  00000+0 0  9999
2 36032   0.0337 302.6392 0003464 160.5631  73.5656  1.00273366 53753
SES-1                   
1 36516U 10016A   24185.49708691 -.00000114  00000+0  00000+0 0  9998
2 36516   0.0237 321.4583 0002478 136.3544 262.1263  1.00271378 51982
ASTRA 3B                
1 36581U 10021A   24184.59840855  .00000139  00000+0  00000+0 0  9991
2 36581   0.0276  34.5925 0004264  66.6333  58.8283  1.00274496 51712
SES-3                   
1 37748U 11035A   24184.47827319 -.00000100  00000+0  00000+0 0  9999
2 37748   0.0167   7.3238 0002805  94.0191 248.8146  1.00272209 47532
ASTRA 1N                
1 37775U 11041A   24184.03174192  .00000122  00000+0  00000+0 0  9995
2 37775   0.0505   0.1059 0004797  73.9047 237.1611  1.00271655 37359
SES-2                   
1 37809U 11049A   24184.88135243 -.00000194  00000+0  00000+0 0  9998
2 37809   0.0324 305.2763 0002427 161.3056  45.0858  1.00271983 46800
QUETZSAT 1              
1 37826U 11054A   24185.09804260 -.00000241  00000+0  00000+0 0  9992
2 37826   0.0217 322.7118 0002966 162.7396 114.4530  1.00271987 46934
SES-4                   
1 38087U 12007A   24184.11542285 -.00000166  00000+0  00000+0 0  9995
2 38087   0.0228  41.0879 0002535  55.6873 203.4142  1.00271474 45054
SES-5                   
1 38652U 12036A   24184.88521647  .00000035  00000+0  00000+0 0  9992
2 38652   0.0599 299.4050 0001892 165.6250 140.0180  1.00271390 37325
ASTRA 2F                
1 38778U 12051A   24185.09632709  .00000151  00000+0  00000+0 0  9993
2 38778   0.0826 253.1666 0002068 279.2846 172.0021  1.00268664 43131
SES-6                   
1 39172U 13026A   24184.53277274 -.00000259  00000+0  00000+0 0  9995
2 39172   0.0203 338.3468 0001694 131.0286 322.9727  1.00271442 40552
O3B FM5                 
1 39188U 13031A   24183.86942032 -.00000019  00000+0  00000+0 0  9998
2 39188   0.0625  13.3766 0002635  82.8661 263.7857  5.00115028201257
O3B FM4                 
1 39189U 13031B   24184.52457306 -.00000020  00000+0  00000+0 0  9990
2 39189   0.0504 347.6875 0002652 109.9818 262.3591  5.00115003201301
O3B FM2                 
1 39190U 13031C   24184.41662776 -.00000020  00000+0  00000+0 0  9999
2 39190   0.0506 341.8906 0002576 115.7554 262.3816  5.00115519201350
O3B PFM                 
1 39191U 13031D   24184.44205479 -.00000020  00000+0  00000+0 0  9996
2 39191   0.0563   7.1266 0002618  94.0477 258.8534  5.00116156200911
ASTRA 2E                
1 39285U 13056A   24184.84910365  .00000151  00000+0  00000+0 0  9992
2 39285   0.0547 352.6152 0002629  98.6349 164.2594  1.00269621 39265
SES-8                   
1 39460U 13071A   24185.26368721 -.00000268  00000+0  00000+0 0  9994
2 39460   0.0221 289.5023 0002540 172.5607   9.6225  1.00270317 38711
ASTRA 5B                
1 39617U 14011B   24184.09354707  .00000140  00000+0  00000+0 0  9990
2 39617   0.0451 335.8722 0001718 123.7521 238.1534  1.00272979 37492
O3B FM3                 
1 40079U 14038A   24183.49715580 -.00000018  00000+0  00000+0 0  9991
2 40079   0.0531 355.7761 0004335 134.8620 229.3982  5.00114601177248
O3B FM7                 
1 40080U 14038B   24184.44311870 -.00000020  00000+0  00000+0 0  9996
2 40080   0.0554 351.5572 0002072  63.4104 305.0501  5.00116163182115
O3B FM6                 
1 40081U 14038C   24184.27030769 -.00000020  00000+0  00000+0 0  9993
2 40081   0.0522 355.2286 0002604 106.0735 258.7255  5.00115379182061
O3B FM8                 
1 40082U 14038D   24184.32380887 -.00000020  00000+0  00000+0 0  9999
2 40082   0.0529 354.2966 0002786 106.1678 259.5653  5.00115425182187
O3B FM10                
1 40348U 14083A   24183.35080349 -.00000018  00000+0  00000+0 0  9993
2 40348   0.0514   5.2682 0002624  93.1841 261.5760  5.00115542174084
O3B FM11                
1 40349U 14083B   24183.96368362 -.00000019  00000+0  00000+0 0  9996
2 40349   0.0561   3.8827 0002009  87.0324 269.1063  5.00115603174131
O3B FM12                
1 40350U 14083C   24183.59120159 -.00000018  00000+0  00000+0 0  9996
2 40350   0.0553   3.3380 0002493  98.7816 257.9070  5.00115607174121
O3B FM9                 
1 40351U 14083D   24184.41743520 -.00000020  00000+0  00000+0 0  9995
2 40351   0.0572   3.8325 0002601  96.5662 259.6289  5.00115993174313
ASTRA 2G                
1 40364U 14089A   24184.47495347  .00000152  00000+0  00000+0 0  9997
2 40364   0.0491 332.2547 0004184 108.8473  39.0468  1.00273378 34803
SES-9                   
1 41380U 16013A   24184.77075164 -.00000344  00000+0  00000+0 0  9993
2 41380   0.0333 297.4497 0002073 157.5405 212.0515  1.00270243 30275
SES-10                  
1 42432U 17017A   24184.88535549 -.00000271  00000+0  00000+0 0  9996
2 42432   0.0199  46.8895 0002279  50.2515  76.0710  1.00270912 26588
SES-15                  
1 42709U 17026A   24184.49493765  .00000062  00000+0  00000+0 0  9990
2 42709   0.0215  34.5410 0000075   3.2720 292.2248  1.00270209 27026
SES-11 (ECHOSTAR 105)   
1 42967U 17063A   24185.06438348 -.00000088  00000+0  00000+0 0  9996
2 42967   0.0097   3.7513 0002106  90.0125 106.0284  1.00271654 24644
SES-14                  
1 43175U 18012B   24185.14980483 -.00000278  00000+0  00000+0 0  9995
2 43175   0.0108 358.8166 0000855 107.6372 181.6219  1.00270634 23873
O3B FM15                
1 43231U 18024A   24184.48375757 -.00000020  00000+0  00000+0 0  9994
2 43231   0.0483   6.7315 0002621  96.0302 257.2659  5.00114911115277
O3B FM16                
1 43232U 18024B   24184.53650100 -.00000020  00000+0  00000+0 0  9999
2 43232   0.0450   9.9432 0002627  93.1208 256.9635  5.00115311115192
O3B FM14                
1 43233U 18024C   24184.37694125 -.00000020  00000+0  00000+0 0  9997
2 43233   0.0436   9.3780 0002844  90.2202 260.4321  5.00114861115191
O3B FM13                
1 43234U 18024D   24184.23050319 -.00000020  00000+0  00000+0 0  9994
2 43234   0.0618 358.7884 0004955 135.2674 225.9834  5.00115189115434
SES-12                  
1 43488U 18049A   24184.76350962 -.00000268  00000+0  00000+0 0  9991
2 43488   0.0137  27.1342 0000807 226.6606  37.3345  1.00269299 22256
O3B FM20                
1 44112U 19020A   24184.40309195 -.00000020  00000+0  00000+0 0  9995
2 44112   0.0511   4.6757 0002329 100.7881 254.5602  5.00115937 95819
O3B FM19                
1 44113U 19020B   24184.23048012 -.00000020  00000+0  00000+0 0  9995
2 44113   0.0774   1.7293 0002683  67.2734 291.0243  5.00115225 95672
O3B FM17                
1 44114U 19020C   24184.11026320 -.00000019  00000+0  00000+0 0  9999
2 44114   0.0348 349.7670 0002625 118.4233 251.8366  5.00117290 95756
O3B FM18                
1 44115U 19020D   24183.45705812 -.00000018  00000+0  00000+0 0  9995
2 44115   0.0514   4.8095 0002818  97.9757 257.2449  5.00116249 95843
SES-17                  
1 49332U 21095A   24184.88535549 -.00000270  00000+0  00000+0 0  9992
2 49332   0.0135  24.8161 0000810  84.6576  63.5497  1.00269646 10682
SES-22                  
1 52933U 22071A   24185.00813120  .00000105  00000+0  00000+0 0  9993
2 52933   0.0447 278.0656 0000350 318.6448 268.7514  1.00273870  7407
SES-20                  
1 53960U 22123A   24185.06403626 -.00000100  00000+0  00000+0 0  9990
2 53960   0.0225  49.6639 0001966  51.2351 100.6244  1.00272634  6378
SES-21                  
1 53961U 22123B   24185.00257669  .00000071  00000+0  00000+0 0  9995
2 53961   0.0138  19.0781 0000813 104.0717  28.2872  1.00267964  6387
O3B MPOWER F1           
1 54755U 22174A   24184.71786003 -.00000021  00000+0  00000+0 0  9995
2 54755   0.0605 352.5905 0006732 106.4183 233.4207  5.00114133 29616
O3B MPOWER F2           
1 54756U 22174B   24184.46663868 -.00000020  00000+0  00000+0 0  9990
2 54756   0.0586 349.3817 0005482 115.2867 255.3906  5.00114421 29685
SES-18                  
1 55970U 23038A   24185.06403626 -.00000100  00000+0  00000+0 0  9999
2 55970   0.0470 266.6487 0000713 290.1851   4.6756  1.00270508  4954
SES-19                  
1 55971U 23038B   24185.08654903  .00000089  00000+0  00000+0 0  9993
2 55971   0.0103  34.8760 0001437  77.6187  65.3416  1.00272960  4929
O3B MPOWER F4           
1 56367U 23059A   24185.36649876 -.00000022  00000+0  00000+0 0  9998
2 56367   0.0621   8.5193 0007170  84.2479 267.3127  5.00113934 22832
O3B MPOWER F3           
1 56368U 23059B   24184.83378024 -.00000021  00000+0  00000+0 0  9993
2 56368   0.0622   9.9838 0005694  97.5860 252.4905  5.00115511 18999
O3B MPOWER F5           
1 58346U 23175A   24184.70031988 -.00000021  00000+0  00000+0 0  9991
2 58346   0.0404  12.3109 0006762 100.5272 247.2314  5.00112389 13691
O3B MPOWER F6           
1 58347U 23175B   24184.40039209 -.00000020  00000+0  00000+0 0  9992
2 58347   0.0482   8.9843 0004794 106.2681 244.7955  5.00113991 12595
ASTRA 1P                
1 60086U 24115A   24184.40950076  .00000489  00000+0  16337-2 0  9995
2 60086  27.9628  62.1756 7979328 181.8242 170.1167  1.43345691   171
